[{"OBJECT_NAME":"QIANFAN-18","OBJECT_ID":"2024-140T","EPOCH":"2026-03-06T06:10:28.057152","MEAN_MOTION":13.51003765,"ECCENTRICITY":0.00130853,"INCLINATION":88.9719,"RA_OF_ASC_NODE":290.3339,"ARG_OF_PERICENTER":313.0511,"MEAN_ANOMALY":46.9544,"EPHEMERIS_TYPE":0,"CLASSIFICATION_TYPE":"U","NORAD_CAT_ID":60396,"ELEMENT_SET_NO":999,"REV_AT_EPOCH":7880,"BSTAR":0.00013730562,"MEAN_MOTION_DOT":1.01e-6,"MEAN_MOTION_DDOT":0},{"OBJECT_NAME":"QIANFAN-19","OBJECT_ID":"2024-185A","EPOCH":"2026-03-06T06:44:19.277952","MEAN_MOTION":14.14387925,"ECCENTRICITY":0.00085779,"INCLINATION":88.976,"RA_OF_ASC_NODE":68.3486,"ARG_OF_PERICENTER":49.3078,"MEAN_ANOMALY":310.8853,"EPHEMERIS_TYPE":0,"CLASSIFICATION_TYPE":"U","NORAD_CAT_ID":61552,"ELEMENT_SET_NO":999,"REV_AT_EPOCH":8147,"BSTAR":0.00033676831,"MEAN_MOTION_DOT":6.58e-6,"MEAN_MOTION_DDOT":0},{"OBJECT_NAME":"QIANFAN-20","OBJECT_ID":"2024-185B","EPOCH":"2026-03-06T06:45:02.192832","MEAN_MOTION":14.08934322,"ECCENTRICITY":0.00078777,"INCLINATION":88.9757,"RA_OF_ASC_NODE":68.7567,"ARG_OF_PERICENTER":81.1654,"MEAN_ANOMALY":279.0422,"EPHEMERIS_TYPE":0,"CLASSIFICATION_TYPE":"U","NORAD_CAT_ID":61553,"ELEMENT_SET_NO":999,"REV_AT_EPOCH":8125,"BSTAR":0.00036304712,"MEAN_MOTION_DOT":6.42e-6,"MEAN_MOTION_DDOT":0},{"OBJECT_NAME":"QIANFAN-21","OBJECT_ID":"2024-185C","EPOCH":"2026-03-06T05:43:19.233120","MEAN_MOTION":14.22729076,"ECCENTRICITY":0.00130226,"INCLINATION":88.9678,"RA_OF_ASC_NODE":67.1792,"ARG_OF_PERICENTER":91.2237,"MEAN_ANOMALY":269.0446,"EPHEMERIS_TYPE":0,"CLASSIFICATION_TYPE":"U","NORAD_CAT_ID":61554,"ELEMENT_SET_NO":999,"REV_AT_EPOCH":8184,"BSTAR":0.00036661471,"MEAN_MOTION_DOT":8.36e-6,"MEAN_MOTION_DDOT":0},{"OBJECT_NAME":"QIANFAN-22","OBJECT_ID":"2024-185D","EPOCH":"2026-03-06T07:11:15.331200","MEAN_MOTION":13.86339254,"ECCENTRICITY":0.00086158,"INCLINATION":88.9741,"RA_OF_ASC_NODE":70.0736,"ARG_OF_PERICENTER":98.4528,"MEAN_ANOMALY":261.762,"EPHEMERIS_TYPE":0,"CLASSIFICATION_TYPE":"U","NORAD_CAT_ID":61555,"ELEMENT_SET_NO":999,"REV_AT_EPOCH":8051,"BSTAR":0.00027707013,"MEAN_MOTION_DOT":3.34e-6,"MEAN_MOTION_DDOT":0},{"OBJECT_NAME":"QIANFAN-23","OBJECT_ID":"2024-185E","EPOCH":"2026-03-06T06:42:44.701056","MEAN_MOTION":14.16393187,"ECCENTRICITY":0.00095241,"INCLINATION":88.9752,"RA_OF_ASC_NODE":68.1191,"ARG_OF_PERICENTER":57.1492,"MEAN_ANOMALY":303.0611,"EPHEMERIS_TYPE":0,"CLASSIFICATION_TYPE":"U","NORAD_CAT_ID":61556,"ELEMENT_SET_NO":999,"REV_AT_EPOCH":8157,"BSTAR":0.00036140085,"MEAN_MOTION_DOT":7.32e-6,"MEAN_MOTION_DDOT":0},{"OBJECT_NAME":"QIANFAN-24","OBJECT_ID":"2024-185F","EPOCH":"2026-03-06T05:47:01.391712","MEAN_MOTION":14.23933501,"ECCENTRICITY":0.00105388,"INCLINATION":88.9736,"RA_OF_ASC_NODE":67.392,"ARG_OF_PERICENTER":37.2741,"MEAN_ANOMALY":322.9181,"EPHEMERIS_TYPE":0,"CLASSIFICATION_TYPE":"U","NORAD_CAT_ID":61557,"ELEMENT_SET_NO":999,"REV_AT_EPOCH":8190,"BSTAR":0.00044314156,"MEAN_MOTION_DOT":1.03e-5,"MEAN_MOTION_DDOT":0},{"OBJECT_NAME":"QIANFAN-25","OBJECT_ID":"2024-185G","EPOCH":"2026-03-06T06:39:22.284000","MEAN_MOTION":14.05995809,"ECCENTRICITY":0.00119121,"INCLINATION":88.975,"RA_OF_ASC_NODE":68.7157,"ARG_OF_PERICENTER":63.7185,"MEAN_ANOMALY":296.5219,"EPHEMERIS_TYPE":0,"CLASSIFICATION_TYPE":"U","NORAD_CAT_ID":61558,"ELEMENT_SET_NO":999,"REV_AT_EPOCH":8124,"BSTAR":0.00034060197,"MEAN_MOTION_DOT":5.72e-6,"MEAN_MOTION_DDOT":0},{"OBJECT_NAME":"QIANFAN-26","OBJECT_ID":"2024-185H","EPOCH":"2026-03-06T06:19:36.621984","MEAN_MOTION":13.77861742,"ECCENTRICITY":0.00077119,"INCLINATION":88.9746,"RA_OF_ASC_NODE":70.7187,"ARG_OF_PERICENTER":111.1842,"MEAN_ANOMALY":249.0149,"EPHEMERIS_TYPE":0,"CLASSIFICATION_TYPE":"U","NORAD_CAT_ID":61559,"ELEMENT_SET_NO":999,"REV_AT_EPOCH":8017,"BSTAR":0.00027362401,"MEAN_MOTION_DOT":2.87e-6,"MEAN_MOTION_DDOT":0},{"OBJECT_NAME":"QIANFAN-27","OBJECT_ID":"2024-185J","EPOCH":"2026-03-06T05:46:53.729760","MEAN_MOTION":14.27444093,"ECCENTRICITY":0.00085885,"INCLINATION":88.975,"RA_OF_ASC_NODE":67.1347,"ARG_OF_PERICENTER":30.6106,"MEAN_ANOMALY":329.5587,"EPHEMERIS_TYPE":0,"CLASSIFICATION_TYPE":"U","NORAD_CAT_ID":61560,"ELEMENT_SET_NO":999,"REV_AT_EPOCH":8207,"BSTAR":0.0002753714,"MEAN_MOTION_DOT":6.9e-6,"MEAN_MOTION_DDOT":0},{"OBJECT_NAME":"QIANFAN-28","OBJECT_ID":"2024-185K","EPOCH":"2026-03-06T06:00:07.716384","MEAN_MOTION":14.28214157,"ECCENTRICITY":0.00081888,"INCLINATION":88.9765,"RA_OF_ASC_NODE":67.1408,"ARG_OF_PERICENTER":31.6838,"MEAN_ANOMALY":328.4848,"EPHEMERIS_TYPE":0,"CLASSIFICATION_TYPE":"U","NORAD_CAT_ID":61561,"ELEMENT_SET_NO":999,"REV_AT_EPOCH":8209,"BSTAR":0.00046586213,"MEAN_MOTION_DOT":1.175e-5,"MEAN_MOTION_DDOT":0},{"OBJECT_NAME":"QIANFAN-29","OBJECT_ID":"2024-185L","EPOCH":"2026-03-06T06:44:11.902848","MEAN_MOTION":13.51043885,"ECCENTRICITY":0.00104282,"INCLINATION":88.9719,"RA_OF_ASC_NODE":72.661,"ARG_OF_PERICENTER":157.919,"MEAN_ANOMALY":202.2413,"EPHEMERIS_TYPE":0,"CLASSIFICATION_TYPE":"U","NORAD_CAT_ID":61562,"ELEMENT_SET_NO":999,"REV_AT_EPOCH":7907,"BSTAR":0.00029518144,"MEAN_MOTION_DOT":2.03e-6,"MEAN_MOTION_DDOT":0},{"OBJECT_NAME":"QIANFAN-30","OBJECT_ID":"2024-185M","EPOCH":"2026-03-06T05:52:25.016736","MEAN_MOTION":13.50018935,"ECCENTRICITY":0.00087207,"INCLINATION":88.9739,"RA_OF_ASC_NODE":72.2221,"ARG_OF_PERICENTER":142.3886,"MEAN_ANOMALY":217.7876,"EPHEMERIS_TYPE":0,"CLASSIFICATION_TYPE":"U","NORAD_CAT_ID":61563,"ELEMENT_SET_NO":999,"REV_AT_EPOCH":7933,"BSTAR":0.00029378815,"MEAN_MOTION_DOT":1.99e-6,"MEAN_MOTION_DDOT":0},{"OBJECT_NAME":"QIANFAN-31","OBJECT_ID":"2024-185N","EPOCH":"2026-03-06T05:43:29.959680","MEAN_MOTION":13.58003335,"ECCENTRICITY":0.00083818,"INCLINATION":88.9724,"RA_OF_ASC_NODE":71.8917,"ARG_OF_PERICENTER":134.0147,"MEAN_ANOMALY":226.1701,"EPHEMERIS_TYPE":0,"CLASSIFICATION_TYPE":"U","NORAD_CAT_ID":61564,"ELEMENT_SET_NO":999,"REV_AT_EPOCH":7949,"BSTAR":0.00030349116,"MEAN_MOTION_DOT":2.31e-6,"MEAN_MOTION_DDOT":0},{"OBJECT_NAME":"QIANFAN-32","OBJECT_ID":"2024-185P","EPOCH":"2026-03-06T05:47:11.387328","MEAN_MOTION":13.50764103,"ECCENTRICITY":0.00097753,"INCLINATION":88.9783,"RA_OF_ASC_NODE":72.3822,"ARG_OF_PERICENTER":170.9386,"MEAN_ANOMALY":189.1943,"EPHEMERIS_TYPE":0,"CLASSIFICATION_TYPE":"U","NORAD_CAT_ID":61565,"ELEMENT_SET_NO":999,"REV_AT_EPOCH":7931,"BSTAR":0.00021674499,"MEAN_MOTION_DOT":1.52e-6,"MEAN_MOTION_DDOT":0},{"OBJECT_NAME":"QIANFAN-33","OBJECT_ID":"2024-185Q","EPOCH":"2026-03-06T07:15:08.664768","MEAN_MOTION":13.96623668,"ECCENTRICITY":0.0009274,"INCLINATION":88.9738,"RA_OF_ASC_NODE":69.4731,"ARG_OF_PERICENTER":71.9281,"MEAN_ANOMALY":288.2906,"EPHEMERIS_TYPE":0,"CLASSIFICATION_TYPE":"U","NORAD_CAT_ID":61566,"ELEMENT_SET_NO":999,"REV_AT_EPOCH":8082,"BSTAR":0.00036648668,"MEAN_MOTION_DOT":5.21e-6,"MEAN_MOTION_DDOT":0},{"OBJECT_NAME":"QIANFAN-34","OBJECT_ID":"2024-185R","EPOCH":"2026-03-06T06:45:24.648192","MEAN_MOTION":14.02383761,"ECCENTRICITY":0.00083013,"INCLINATION":88.9714,"RA_OF_ASC_NODE":68.928,"ARG_OF_PERICENTER":75.4874,"MEAN_ANOMALY":284.7227,"EPHEMERIS_TYPE":0,"CLASSIFICATION_TYPE":"U","NORAD_CAT_ID":61567,"ELEMENT_SET_NO":999,"REV_AT_EPOCH":8106,"BSTAR":0.00036200711,"MEAN_MOTION_DOT":5.69e-6,"MEAN_MOTION_DDOT":0}]
