QIANFAN-18              
1 60396U 24140T   26065.25726918  .00000101  00000+0  13731-3 0  9993
2 60396  88.9719 290.3339 0013085 313.0511  46.9544 13.51003765 78804
QIANFAN-19              
1 61552U 24185A   26065.28077868  .00000658  00000+0  33677-3 0  9991
2 61552  88.9760  68.3486 0008577  49.3078 310.8853 14.14387925 81474
QIANFAN-20              
1 61553U 24185B   26065.28127538  .00000642  00000+0  36305-3 0  9996
2 61553  88.9757  68.7567 0007877  81.1654 279.0422 14.08934322 81257
QIANFAN-21              
1 61554U 24185C   26065.23841705  .00000836  00000+0  36661-3 0  9991
2 61554  88.9678  67.1792 0013022  91.2237 269.0446 14.22729076 81845
QIANFAN-22              
1 61555U 24185D   26065.29948300  .00000334  00000+0  27707-3 0  9991
2 61555  88.9741  70.0736 0008615  98.4528 261.7620 13.86339254 80512
QIANFAN-23              
1 61556U 24185E   26065.27968404  .00000732  00000+0  36140-3 0  9990
2 61556  88.9752  68.1191 0009524  57.1492 303.0611 14.16393187 81576
QIANFAN-24              
1 61557U 24185F   26065.24098833  .00001030  00000+0  44314-3 0  9992
2 61557  88.9736  67.3920 0010538  37.2741 322.9181 14.23933501 81900
QIANFAN-25              
1 61558U 24185G   26065.27734125  .00000572  00000+0  34060-3 0  9994
2 61558  88.9750  68.7157 0011912  63.7185 296.5219 14.05995809 81241
QIANFAN-26              
1 61559U 24185H   26065.26361831  .00000287  00000+0  27362-3 0  9994
2 61559  88.9746  70.7187 0007711 111.1842 249.0149 13.77861742 80175
QIANFAN-27              
1 61560U 24185J   26065.24089965  .00000690  00000+0  27537-3 0  9991
2 61560  88.9750  67.1347 0008588  30.6106 329.5587 14.27444093 82074
QIANFAN-28              
1 61561U 24185K   26065.25008931  .00001175  00000+0  46586-3 0  9991
2 61561  88.9765  67.1408 0008188  31.6838 328.4848 14.28214157 82095
QIANFAN-29              
1 61562U 24185L   26065.28069332  .00000203  00000+0  29518-3 0  9994
2 61562  88.9719  72.6610 0010428 157.9190 202.2413 13.51043885 79078
QIANFAN-30              
1 61563U 24185M   26065.24473399  .00000199  00000+0  29379-3 0  9992
2 61563  88.9739  72.2221 0008720 142.3886 217.7876 13.50018935 79337
QIANFAN-31              
1 61564U 24185N   26065.23854120  .00000231  00000+0  30349-3 0  9993
2 61564  88.9724  71.8917 0008381 134.0147 226.1701 13.58003335 79494
QIANFAN-32              
1 61565U 24185P   26065.24110402  .00000152  00000+0  21674-3 0  9996
2 61565  88.9783  72.3822 0009775 170.9386 189.1943 13.50764103 79319
QIANFAN-33              
1 61566U 24185Q   26065.30218362  .00000521  00000+0  36649-3 0  9996
2 61566  88.9738  69.4731 0009274  71.9281 288.2906 13.96623668 80822
QIANFAN-34              
1 61567U 24185R   26065.28153528  .00000569  00000+0  36201-3 0  9992
2 61567  88.9714  68.9280 0008301  75.4874 284.7227 14.02383761 81066
